LANDSAT 9               
1 49260U 21088A   23336.05983083  .00001190  00000+0  27407-3 0  9996
2 49260  98.2128  43.7892 0001119  88.6204 271.5123 14.57121554115830
